[{"OBJECT_NAME":"STARLINK-30113","OBJECT_ID":"2023-056F","EPOCH":"2026-03-09T22:00:01.999584","MEAN_MOTION":15.26733851,"ECCENTRICITY":0.00016214,"INCLINATION":42.9993,"RA_OF_ASC_NODE":207.2652,"ARG_OF_PERICENTER":290.656,"MEAN_ANOMALY":262.2282,"EPHEMERIS_TYPE":0,"CLASSIFICATION_TYPE":"U","NORAD_CAT_ID":56291,"ELEMENT_SET_NO":999,"REV_AT_EPOCH":572,"BSTAR":0.0014808701,"MEAN_MOTION_DOT":0.00039669,"MEAN_MOTION_DDOT":0},{"OBJECT_NAME":"OBJECT G","OBJECT_ID":"2025-155G","EPOCH":"2026-03-09T22:09:56.639808","MEAN_MOTION":15.27590702,"ECCENTRICITY":0.00081871,"INCLINATION":97.4488,"RA_OF_ASC_NODE":37.3259,"ARG_OF_PERICENTER":154.1528,"MEAN_ANOMALY":206.0122,"EPHEMERIS_TYPE":0,"CLASSIFICATION_TYPE":"U","NORAD_CAT_ID":64882,"ELEMENT_SET_NO":999,"REV_AT_EPOCH":6559,"BSTAR":0.0004792617,"MEAN_MOTION_DOT":0.00012876,"MEAN_MOTION_DDOT":0}]
